1 45662U 20035F   23141.91948157  .00018982  00000-0  12914-2 0  9995
2 45662  53.0540 338.0113 0001241  63.3516 296.7600 15.06352974164578
1 45662U 20035F   23142.25122506  .00026833  00000-0  18151-2 0  9998
2 45662  53.0540 336.5222 0001211  64.3222 295.7892 15.06366135164626
1 45662U 20035F   23142.25122506  .00026833  00000-0  18151-2 0  9998
2 45662  53.0540 336.5222 0001211  64.3222 295.7892 15.06366135164266
1 45662U 20035F   23142.64931260  .00023694  00000-0  16050-2 0  9994
2 45662  53.0540 334.7347 0001253  64.2040 295.9078 15.06381587164689
1 45662U 20035F   23143.11374247  .00014233  00000-0  97261-3 0  9996
2 45662  53.0537 332.6501 0001448  62.6357 297.4779 15.06395468164399
1 45662U 20035F   23143.90990249  .00021689  00000-0  14701-2 0  9999
2 45662  53.0542 329.0762 0001191  70.8431 289.2686 15.06409438164875
1 45662U 20035F   23144.50701445  .00022152  00000-0  15000-2 0  9993
2 45662  53.0544 326.3955 0001187  70.8499 289.2619 15.06433182164600
1 45662U 20035F   23144.63970483  .00021002  00000-0  14232-2 0  9996
2 45662  53.0545 325.7998 0001191  70.1404 289.9713 15.06437034164988
1 45662U 20035F   23145.76759402  .00004668  00000-0  33197-3 0  9998
2 45662  53.0548 320.7363 0001350  55.3941 304.7175 15.06409180164798
1 45662U 20035F   23145.90028674  .00005545  00000-0  39074-3 0  9999
2 45662  53.0548 320.1407 0001249  84.2916 275.8215 15.06407741165178
1 45662U 20035F   23146.49740541  .00016728  00000-0  11387-2 0  9999
2 45662  53.0550 317.4602 0001262  93.6156 266.4978 15.06417739165262
1 45662U 20035F   23146.69644224  .00017172  00000-0  11681-2 0  9993
2 45662  53.0548 316.5664 0001211  91.7612 268.3516 15.06425790165295
1 45662U 20035F   23147.16086958  .00004434  00000-0  31628-3 0  9991
2 45662  53.0550 314.4811 0001237 117.2275 242.8840 15.06410331165007
1 45662U 20035F   23147.82434257  .00002784  00000-0  20576-3 0  9999
2 45662  53.0542 311.5038 0001132 105.3964 254.7150 15.06391152165100
1 45662U 20035F   23147.89069021  .00004315  00000-0  30843-3 0  9999
2 45662  53.0543 311.2059 0001133 104.5779 255.5336 15.06391218165475
1 45662U 20035F   23148.15607980  .00013891  00000-0  94970-3 0  9991
2 45662  53.0541 310.0146 0001102 104.8640 255.2471 15.06396031165513
1 45662U 20035F   23148.81954328  .00018337  00000-0  12460-2 0  9998
2 45662  53.0537 307.0362 0001062 103.0295 257.0813 15.06420823165614
1 45662U 20035F   23148.81954328  .00018337  00000-0  12460-2 0  9998
2 45662  53.0537 307.0362 0001062 103.0295 257.0813 15.06420823165254
1 45662U 20035F   23149.15128031  .00008640  00000-0  59805-3 0  9991
2 45662  53.0540 305.5468 0001462  84.6623 275.4532 15.06408648165300
1 45662U 20035F   23149.61571127  .00000493  00000-0  51968-4 0  9991
2 45662  53.0534 303.4620 0001091  87.7318 272.3796 15.06392257165736
1 45662U 20035F   23149.68205834  .00001841  00000-0  14244-3 0  9990
2 45662  53.0534 303.1641 0000986  86.1067 274.0035 15.06392835165380
1 45662U 20035F   23149.74840573  .00004175  00000-0  29907-3 0  9997
2 45662  53.0535 302.8663 0000987  85.7761 274.3341 15.06393917165754
1 45662U 20035F   23150.41187643  .00017325  00000-0  11789-2 0  9994
2 45662  53.0535 299.8878 0000995  79.1992 280.9109 15.06406733165856
1 45662U 20035F   23150.67726044  .00019179  00000-0  13023-2 0  9998
2 45662  53.0536 298.6965 0000998  76.6257 283.4844 15.06419161165538
1 45662U 20035F   23151.14168810  .00011931  00000-0  81817-3 0  9997
2 45662  53.0527 296.6169 0001558  41.8588 318.2520 15.06414475165605
1 45662U 20035F   23151.40707862  .00007823  00000-0  54334-3 0  9991
2 45662  53.0541 295.4203 0002067  81.5739 278.5484 15.06408761165644
1 45662U 20035F   23151.53977061  .00002964  00000-0  21780-3 0  9995
2 45662  53.0546 294.8191 0001884 119.7278 240.3899 15.06400735166029
1 45662U 20035F   23151.67246633  .00002661  00000-0  19749-3 0  9990
2 45662  53.0543 294.2287 0001176  84.1093 276.0030 15.06399496166046
1 45662U 20035F   23151.67246633  .00002661  00000-0  19749-3 0  9990
2 45662  53.0543 294.2287 0001176  84.1093 276.0030 15.06399496165685
1 45662U 20035F   23152.53496858  .00020756  00000-0  14071-2 0  9999
2 45662  53.0545 290.3562 0001238  82.1227 277.9903 15.06428872166171
1 45662U 20035F   23152.53496858  .00020756  00000-0  14071-2 0  9999
2 45662  53.0545 290.3562 0001238  82.1227 277.9903 15.06428872165811
1 45662U 20035F   23153.06573876  .00009629  00000-0  66421-3 0  9997
2 45662  53.0544 287.9753 0001448  99.2371 260.8782 15.06413506165898
1 45662U 20035F   23153.53017233 -.00005139  00000-0 -32644-3 0  9993
2 45662  53.0547 285.8883 0001261 101.3476 258.7654 15.06388355165961
1 45662U 20035F   23153.59651966 -.00001251  00000-0 -65120-4 0  9993
2 45662  53.0548 285.5904 0001195 102.2395 257.8728 15.06390049166336
1 45662U 20035F   23153.66287095  .00020908  00000-0  14192-2 0  9998
2 45662  53.0548 285.2935 0001154 100.7351 259.3768 15.06377881166348
1 45662U 20035F   23154.52538080  .00017996  00000-0  12236-2 0  9997
2 45662  53.0548 281.4219 0001115 103.2099 256.9014 15.06409841166119
1 45662U 20035F   23154.59172686  .00018998  00000-0  12904-2 0  9995
2 45662  53.0546 281.1237 0001060 101.5137 258.5971 15.06413420166485
1 45662U 20035F   23154.72441900  .00019613  00000-0  13313-2 0  9998
2 45662  53.0545 280.5286 0001038  99.3014 260.8092 15.06418217166506
1 45662U 20035F   23155.05615701  .00014106  00000-0  96382-3 0  9997
2 45662  53.0544 279.0392 0001446  76.2056 283.9094 15.06406097166195
1 45662U 20035F   23155.32154885  .00016879  00000-0  11491-2 0  9994
2 45662  53.0539 277.8481 0002777  79.3986 280.7316 15.06405979166233
1 45662U 20035F   23155.58693610  .00003675  00000-0  26556-3 0  9995
2 45662  53.0542 276.6560 0001005  85.0076 275.1028 15.06391149166634
1 45662U 20035F   23155.71963332  .00020487  00000-0  13909-2 0  9998
2 45662  53.0540 276.0609 0000988  74.1228 285.9870 15.06383803166651
1 45662U 20035F   23155.71963332  .00020487  00000-0  13909-2 0  9998
2 45662  53.0540 276.0609 0000988  74.1228 285.9870 15.06383803166291
1 45662U 20035F   23156.58213731  .00022449  00000-0  15202-2 0  9993
2 45662  53.0538 272.1889 0000946  72.3298 287.7794 15.06423459166787
1 45662U 20035F   23156.71482838  .00022629  00000-0  15320-2 0  9995
2 45662  53.0538 271.5932 0000952  70.4248 289.6844 15.06429442166808
1 45662U 20035F   23157.31195570  .00015687  00000-0  10696-2 0  9993
2 45662  53.0539 268.9126 0001047  80.3583 279.7524 15.06402239166532
1 45662U 20035F   23157.51099840  .00013527  00000-0  92552-3 0  9991
2 45662  53.0533 268.0188 0001202  86.5595 273.5532 15.06389838166922
1 45662U 20035F   23157.71004019  .00021767  00000-0  14760-2 0  9996
2 45662  53.0537 267.1258 0001132  79.9782 280.1335 15.06392525166595
1 45662U 20035F   23157.77638706  .00024272  00000-0  16429-2 0  9996
2 45662  53.0536 266.8279 0001145  79.9099 280.2019 15.06396604166961
1 45662U 20035F   23158.43984848  .00022577  00000-0  15286-2 0  9997
2 45662  53.0535 263.8496 0001178  77.5466 282.5655 15.06427369167062
1 45662U 20035F   23159.30235571  .00010224  00000-0  70437-3 0  9992
2 45662  53.0532 259.9778 0001335 101.6593 258.4546 15.06393076166835
1 45662U 20035F   23159.50139869  .00020813  00000-0  14125-2 0  9993
2 45662  53.0531 259.0845 0001061  91.6541 268.4569 15.06387468167225
1 45662U 20035F   23160.56293481  .00020973  00000-0  14213-2 0  9997
2 45662  53.0529 254.3190 0001018  94.6166 265.4939 15.06436999167380
1 45662U 20035F   23160.56293481  .00020973  00000-0  14213-2 0  9997
2 45662  53.0529 254.3190 0001018  94.6166 265.4939 15.06436999167021
1 45662U 20035F   23160.96101236  .00013306  00000-0  90978-3 0  9992
2 45662  53.0528 252.5321 0000731  61.0235 299.0827 15.06427791167087
1 45662U 20035F   23161.35910456  .00007783  00000-0  54117-3 0  9995
2 45662  53.0525 250.7429 0001296  71.6935 288.4195 15.06376810167506
1 45662U 20035F   23161.35910456  .00007783  00000-0  54117-3 0  9995
2 45662  53.0525 250.7429 0001296  71.6935 288.4195 15.06376810167146
1 45662U 20035F   23161.55814787  .00017315  00000-0  11793-2 0  9991
2 45662  53.0526 249.8513 0000916  66.6106 293.4979 15.06372464167532
1 45662U 20035F   23162.48700917  .00020102  00000-0  13643-2 0  9997
2 45662  53.0527 245.6809 0001057  62.5939 297.5157 15.06407199167673
1 45662U 20035F   23162.48700917  .00020102  00000-0  13643-2 0  9997
2 45662  53.0527 245.6809 0001057  62.5939 297.5157 15.06407199167314
1 45662U 20035F   23162.61970193  .00019958  00000-0  13545-2 0  9995
2 45662  53.0528 245.0850 0001025  62.2683 297.8410 15.06411573167690
1 45662U 20035F   23163.48221337  .00013149  00000-0  89967-3 0  9998
2 45662  53.0538 241.2115 0001865  84.2252 275.8949 15.06413388167825
1 45662U 20035F   23163.48221337  .00013149  00000-0  89967-3 0  9998
2 45662  53.0538 241.2115 0001865  84.2252 275.8949 15.06413388167465
1 45662U 20035F   23164.21202375  .00014190  00000-0  96908-3 0  9991
2 45662  53.0533 237.9370 0001105  59.6398 300.4700 15.06420796167572
1 45662U 20035F   23164.61009613  .00012063  00000-0  82666-3 0  9998
2 45662  53.0537 236.1470 0001154  74.9621 285.1495 15.06429974167994
1 45662U 20035F   23165.00817747 -.00002520  00000-0 -15033-3 0  9990
2 45662  53.0539 234.3574 0000864 125.9970 234.1099 15.06406077167692
1 45662U 20035F   23165.20722644 -.00004908  00000-0 -31095-3 0  9991
2 45662  53.0550 233.4690 0001253   0.6064 359.4926 15.06389049168083
1 45662U 20035F   23165.20722644 -.00004908  00000-0 -31095-3 0  9991
2 45662  53.0550 233.4690 0001253   0.6064 359.4926 15.06389049167723
1 45662U 20035F   23165.87069243 -.00001134  00000-0 -57290-4 0  9997
2 45662  53.0545 230.4904 0000606  86.0795 274.0263 15.06395989168189
1 45662U 20035F   23165.87069243 -.00001134  00000-0 -57290-4 0  9997
2 45662  53.0545 230.4904 0000606  86.0795 274.0263 15.06395989167829
1 45662U 20035F   23166.40147043  .00008002  00000-0  55548-3 0  9994
2 45662  53.0534 228.1080 0000941  76.5586 283.5508 15.06400463168260
